      2.10          N: GNSS NAV DATA                        RINEX VERSION / TYPE
fic2rin                                 05/15/2021 00:17:11 PGM / RUN BY / DATE
                                                            END OF HEADER
 8 21  5 14  5 59 44.0-2.114335075021e-05-1.364242052659e-12 0.000000000000e+00
    7.000000000000e+00-1.309375000000e+01 4.444113686602e-09 2.801880688549e+00
   -6.370246410370e-07 6.341508124024e-03 5.587935447693e-07 5.153597543716e+03
    4.535840000000e+05-8.568167686462e-08 2.020585438363e+00-3.166496753693e-08
    9.672261605777e-01 3.735312500000e+02 4.672896816338e-02-8.306417424198e-09
   -1.750072897561e-11 1.000000000000e+00 2.157000000000e+03 0.000000000000e+00
    2.400000000000e+00 0.000000000000e+00 5.122274160385e-09 7.000000000000e+00
    4.497000000000e+05 4.000000000000e+00
23 21  5 14  7 14 40.0 1.068278215826e-04-3.183231456205e-12 0.000000000000e+00
    1.200000000000e+01-1.250000000000e+01 4.383754029523e-09 8.363440529040e-01
   -5.923211574554e-07 1.168854651041e-03 9.188428521156e-06 5.153654188156e+03
    4.580800000000e+05 3.539025783539e-08-2.177191952510e+00-3.352761268616e-08
    9.639752142827e-01 2.056562500000e+02 2.577918781076e+00-7.781752712664e-09
    5.993106779810e-10 1.000000000000e+00 2.157000000000e+03 0.000000000000e+00
    2.400000000000e+00 0.000000000000e+00-8.381903171539e-09 1.200000000000e+01
    4.509000000000e+05 4.000000000000e+00
 8 21  5 14  7 59 44.0-2.115359529853e-05-1.364242052659e-12 0.000000000000e+00
    5.300000000000e+01-1.484375000000e+01 4.437327689652e-09-2.431091311066e+00
   -7.040798664093e-07 6.342247594148e-03 8.437782526016e-07 5.153596160889e+03
    4.607840000000e+05-3.166496753693e-08 2.020525869801e+00-2.980232238770e-08
    9.672262395752e-01 3.683750000000e+02 4.674297414107e-02-8.260701234221e-09
   -1.821504444400e-11 1.000000000000e+00 2.157000000000e+03 0.000000000000e+00
    2.400000000000e+00 0.000000000000e+00 5.122274160385e-09 5.300000000000e+01
    4.536000000000e+05 4.000000000000e+00
13 21  5 14  7 59 44.0 1.318333670497e-04 4.774847184308e-12 0.000000000000e+00
    4.400000000000e+01-7.937500000000e+00 4.805557313608e-09-3.039026347920e+00
   -5.308538675308e-07 4.938428755850e-03 5.733221769333e-06 5.153669795990e+03
    4.607840000000e+05 3.539025783539e-08-9.723079503117e-01-1.136213541031e-07
    9.677872145307e-01 2.728750000000e+02 9.728256521504e-01-7.907472235101e-09
   -1.157191058795e-10 1.000000000000e+00 2.157000000000e+03 0.000000000000e+00
    2.400000000000e+00 0.000000000000e+00-1.117587089539e-08 4.400000000000e+01
    4.536000000000e+05 4.000000000000e+00
29 21  5 14  7 59 44.0-3.467719070613e-04-6.480149750132e-12 0.000000000000e+00
    2.800000000000e+01-1.528125000000e+01 4.133743615585e-09-2.316249727087e+00
   -8.419156074524e-07 1.833311282098e-03 1.242384314537e-06 5.153638414383e+03
    4.607840000000e+05 2.607703208923e-08 2.110783738661e+00 7.450580596924e-08
    9.838822553309e-01 3.677812500000e+02 2.134198177006e+00-8.122124033353e-09
   -1.214336296267e-10 1.000000000000e+00 2.157000000000e+03 0.000000000000e+00
    2.400000000000e+00 0.000000000000e+00-9.778887033463e-09 2.800000000000e+01
    4.536000000000e+05 4.000000000000e+00
 2 21  5 14  8  0  0.0-6.040744483471e-04-3.183231456205e-12 0.000000000000e+00
    7.100000000000e+01-1.325937500000e+02 4.018738825174e-09 1.889681079705e+00
   -6.975606083870e-06 2.020546537824e-02 6.543472409248e-06 5.153679382324e+03
    4.608000000000e+05 3.576278686523e-07 3.011571525871e+00-3.110617399216e-07
    9.632419734088e-01 2.518125000000e+02-1.519019028760e+00-7.723178844256e-09
   -5.321650239522e-11 1.000000000000e+00 2.157000000000e+03 0.000000000000e+00
    2.400000000000e+00 0.000000000000e+00-1.769512891769e-08 7.100000000000e+01
    4.536000000000e+05 4.000000000000e+00
 1 21  5 14  8  0  0.0 6.895619444549e-04-1.091393642128e-11 0.000000000000e+00
    5.700000000000e+01-1.119687500000e+02 3.701939914942e-09 1.618630528104e+00
   -5.882233381271e-06 1.087265042588e-02 8.391216397285e-06 5.153688879013e+03
    4.608000000000e+05-2.123415470123e-07 3.095075257028e+00 2.421438694000e-08
    9.845921465693e-01 2.311562500000e+02 8.407618723982e-01-7.763180510486e-09
   -7.678891285216e-11 1.000000000000e+00 2.157000000000e+03 0.000000000000e+00
    2.400000000000e+00 0.000000000000e+00 5.122274160385e-09 5.700000000000e+01
    4.536000000000e+05 4.000000000000e+00
 5 21  5 14  8  0  0.0-4.188902676105e-05-1.136868377216e-12 0.000000000000e+00
    7.000000000000e+01-2.078125000000e+01 4.491615665250e-09-1.939540609172e+00
   -1.238659024239e-06 6.076942663640e-03 9.076669812202e-06 5.153873178482e+03
    4.608000000000e+05 8.754432201385e-08-2.187589830011e+00-5.587935447693e-09
    9.560742980235e-01 1.948750000000e+02 8.892795212387e-01-7.783895659069e-09
    6.789568527068e-10 1.000000000000e+00 2.157000000000e+03 0.000000000000e+00
    2.400000000000e+00 0.000000000000e+00-1.117587089539e-08 7.000000000000e+01
    4.536000000000e+05 4.000000000000e+00
 3 21  5 14  8  0  0.0-1.635155640543e-04-1.034550223267e-11 0.000000000000e+00
    6.500000000000e+01-4.218750000000e+00 4.301964908392e-09 5.612739700338e-01
   -4.731118679047e-07 3.493270836771e-03 9.469687938690e-06 5.153598480225e+03
    4.608000000000e+05-5.401670932770e-08-2.150912078967e+00 5.401670932770e-08
    9.690898099547e-01 2.035937500000e+02 8.327056878657e-01-7.801753545779e-09
    5.989535202468e-10 1.000000000000e+00 2.157000000000e+03 0.000000000000e+00
    2.400000000000e+00 0.000000000000e+00 1.862645149231e-09 6.500000000000e+01
    4.536000000000e+05 4.000000000000e+00
 4 21  5 14  8  0  0.0-1.961961388588e-04-1.477928890381e-12 0.000000000000e+00
    1.290000000000e+02-6.562500000000e+00 5.039495629507e-09-3.052531706267e+00
   -2.589076757431e-07 1.221705693752e-03 5.498528480530e-06 5.153737691879e+03
    4.608000000000e+05-3.539025783539e-08-1.070038529068e+00-9.313225746155e-09
    9.600666950886e-01 2.769062500000e+02-2.916465855172e+00-8.093194256883e-09
   -5.643092200298e-11 1.000000000000e+00 2.157000000000e+03 0.000000000000e+00
    2.400000000000e+00 0.000000000000e+00-4.190951585770e-09 8.970000000000e+02
    4.536000000000e+05 4.000000000000e+00
22 21  5 14  8  0  0.0-6.146975792944e-04 9.436007530894e-12 0.000000000000e+00
    1.000000000000e+01-8.531250000000e+00 4.955920719705e-09 2.838012188908e+00
   -6.537884473801e-07 7.036192575470e-03 9.449198842049e-06 5.153540697098e+03
    4.608000000000e+05 7.264316082001e-08-2.249941879659e+00 9.126961231232e-08
    9.347132436785e-01 1.792500000000e+02-9.732337097419e-01-8.020334079107e-09
    5.714523747137e-10 1.000000000000e+00 2.157000000000e+03 0.000000000000e+00
    2.400000000000e+00 0.000000000000e+00-1.769512891769e-08 1.000000000000e+01
    4.536000000000e+05 4.000000000000e+00
23 21  5 14  8  0  0.0 1.068189740181e-04-3.183231456205e-12 0.000000000000e+00
    1.300000000000e+01-1.546875000000e+01 4.366967616016e-09 1.233421095431e+00
   -7.934868335724e-07 1.168622751720e-03 9.335577487946e-06 5.153653352737e+03
    4.608000000000e+05 4.284083843231e-08-2.177212999512e+00 5.587935447693e-09
    9.639769273598e-01 2.035312500000e+02 2.577580905517e+00-7.756037355802e-09
    5.889531036893e-10 1.000000000000e+00 2.157000000000e+03 0.000000000000e+00
    2.400000000000e+00 0.000000000000e+00-8.381903171539e-09 1.300000000000e+01
    4.536000000000e+05 4.000000000000e+00
12 21  5 14  8  0  0.0-4.086690023541e-05-5.115907697473e-12 0.000000000000e+00
    8.900000000000e+01 1.216562500000e+02 4.091956160685e-09 2.714523449769e-01
    6.344169378281e-06 8.443888276815e-03 6.945803761482e-06 5.153749673843e+03
    4.608000000000e+05-1.415610313416e-07 1.061783835330e+00 6.891787052155e-08
    9.738088910948e-01 2.519062500000e+02 1.214464463983e+00-8.024977129652e-09
    2.928693420408e-11 1.000000000000e+00 2.157000000000e+03 0.000000000000e+00
    2.400000000000e+00 0.000000000000e+00-1.257285475731e-08 8.900000000000e+01
    4.536000000000e+05 4.000000000000e+00
 9 21  5 14  8  0  0.0-3.453679382801e-04-2.387423592154e-12 0.000000000000e+00
    6.400000000000e+01-5.218750000000e+00 5.224503335820e-09-2.016000261040e+00
   -1.378357410431e-07 1.850490109064e-03 5.286186933517e-06 5.153776296616e+03
    4.608000000000e+05 1.862645149231e-09-1.120786535498e+00 4.470348358154e-08
    9.528980614920e-01 2.760312500000e+02 1.836115257525e+00-8.187483898711e-09
    1.392915163365e-11 1.000000000000e+00 2.157000000000e+03 0.000000000000e+00
    2.400000000000e+00 0.000000000000e+00 1.396983861923e-09 6.400000000000e+01
    4.536000000000e+05 4.000000000000e+00
 6 21  5 14  8  0  0.0 1.562293618917e-05 3.751665644813e-12 0.000000000000e+00
    5.000000000000e+01-1.264687500000e+02 3.624436686622e-09 1.841220475892e+00
   -6.431713700294e-06 2.226166659966e-03 7.865950465202e-06 5.153766128540e+03
    4.608000000000e+05 5.774199962616e-08 3.086827459485e+00 3.911554813385e-08
    9.840514271775e-01 2.385312500000e+02-9.716724411431e-01-7.619245943605e-09
   -2.928693420408e-11 1.000000000000e+00 2.157000000000e+03 0.000000000000e+00
    2.400000000000e+00 0.000000000000e+00 4.190951585770e-09 5.000000000000e+01
    4.536000000000e+05 4.000000000000e+00
10 21  5 14  8  0  0.0-1.216232776642e-04-7.617018127348e-12 0.000000000000e+00
    1.010000000000e+02-9.718750000000e+00 4.278749655669e-09-4.184549482254e-01
   -3.632158041000e-07 6.605586619116e-03 9.013339877129e-06 5.153674392700e+03
    4.608000000000e+05 6.891787052155e-08-2.153800819912e+00 6.332993507385e-08
    9.689717232073e-01 2.114375000000e+02-2.562463053032e+00-7.832469110920e-09
    6.107397254753e-10 1.000000000000e+00 2.157000000000e+03 0.000000000000e+00
    2.400000000000e+00 0.000000000000e+00 2.328306436539e-09 1.010000000000e+02
    4.536000000000e+05 4.000000000000e+00
